STARLINK-32527          
1 62319U 24239U   26068.52617986  .00018455  00000+0  63398-3 0  9991
2 62319  53.1574 181.5540 0001160  65.5652 294.5470 15.30184744 69541
2025-313BC              
1 67298U 25313BC  26068.18968176  .00075331  00000+0  26410-2 0  9997
2 67298  97.3985 144.8110 0008478 328.9209  31.1528 15.29126358  7890
